0 MOLNIYA 1-63
1 15429U 84124A   13278.56979841 -.00000967  00000-0  00000+0 0  4874
2 15429 063.2620 146.6742 6729963 278.2972 015.2497 02.00558411211087
0 MOLNIYA 1-63
1 15429U 84124A   13290.17730301 -.00000993  00000-0  00000+0 0  4904
2 15429 063.2591 145.4700 6730468 278.2452 115.5908 02.00530400211326
0 MOLNIYA 1-63
1 15429U 84124A   13292.53136804 -.00001001  00000-0  00000+0 0  4916
2 15429 063.2584 145.2256 6730451 278.2350 015.0254 02.00524791211369
